{
  "type": "FeatureCollection",
  "features": [
    {
      "type": "Feature",
      "properties": {
        "norad_id": 40796,
        "name": "COSMOS 2251 DEB",
        "group": "cosmos-2251-debris",
        "lat": 56.62516416769566,
        "lon": 139.32523172481567,
        "alt_km": 656.3454244944569,
        "timestamp": "2025-12-27T05:29:39.602872+00:00",
        "meta_object_name": "COSMOS 2251 DEB",
        "meta_object_id": "1993-036BVZ",
        "meta_epoch": "2025-12-26T16:33:35.172288",
        "meta_mean_motion": 14.81907149,
        "meta_eccentricity": 0.00559242,
        "meta_inclination": 74.013,
        "meta_ra_of_asc_node": 114.5925,
        "meta_arg_of_pericenter": 248.8524,
        "meta_mean_anomaly": 177.4514,
        "meta_ephemeris_type": 0,
        "meta_classification_type": "U",
        "meta_norad_cat_id": 40796,
        "meta_element_set_no": 999,
        "meta_rev_at_epoch": 76365,
        "meta_bstar": 0.0011252673,
        "meta_mean_motion_dot": 9.13e-05,
        "meta_mean_motion_ddot": 0,
        "tle_line1": "1 40796U 93036BVZ 25360.68999042  .00009130  00000+0  11253-2 0  9996",
        "tle_line2": "2 40796  74.0130 114.5925 0055924 248.8524 177.4514 14.81907149763658"
      },
      "geometry": {
        "type": "Point",
        "coordinates": [
          139.32523172481567,
          56.62516416769566
        ]
      }
    },
    {
      "type": "Feature",
      "properties": {
        "norad_id": 40797,
        "name": "COSMOS 2251 DEB",
        "group": "cosmos-2251-debris",
        "lat": -51.81066977889649,
        "lon": -93.37294059549177,
        "alt_km": 544.7416525268864,
        "timestamp": "2025-12-27T05:29:39.602883+00:00",
        "meta_object_name": "COSMOS 2251 DEB",
        "meta_object_id": "1993-036BWA",
        "meta_epoch": "2025-12-26T10:58:54.645024",
        "meta_mean_motion": 15.11637987,
        "meta_eccentricity": 0.0072436,
        "meta_inclination": 73.9202,
        "meta_ra_of_asc_node": 66.7218,
        "meta_arg_of_pericenter": 335.0472,
        "meta_mean_anomaly": 24.7224,
        "meta_ephemeris_type": 0,
        "meta_classification_type": "U",
        "meta_norad_cat_id": 40797,
        "meta_element_set_no": 999,
        "meta_rev_at_epoch": 64851,
        "meta_bstar": 0.00076331,
        "meta_mean_motion_dot": 0.00013807,
        "meta_mean_motion_ddot": 0,
        "tle_line1": "1 40797U 93036BWA 25360.45757691  .00013807  00000+0  76331-3 0  9999",
        "tle_line2": "2 40797  73.9202  66.7218 0072436 335.0472  24.7224 15.11637987648511"
      },
      "geometry": {
        "type": "Point",
        "coordinates": [
          -93.37294059549177,
          -51.81066977889649
        ]
      }
    },
    {
      "type": "Feature",
      "properties": {
        "norad_id": 40799,
        "name": "COSMOS 2251 DEB",
        "group": "cosmos-2251-debris",
        "lat": -12.250254700484087,
        "lon": -107.5486149490087,
        "alt_km": 615.2483356779503,
        "timestamp": "2025-12-27T05:29:39.602893+00:00",
        "meta_object_name": "COSMOS 2251 DEB",
        "meta_object_id": "1993-036BWC",
        "meta_epoch": "2025-12-26T10:58:52.007232",
        "meta_mean_motion": 14.96790134,
        "meta_eccentricity": 0.0119466,
        "meta_inclination": 73.9261,
        "meta_ra_of_asc_node": 70.4321,
        "meta_arg_of_pericenter": 309.4146,
        "meta_mean_anomaly": 49.6507,
        "meta_ephemeris_type": 0,
        "meta_classification_type": "U",
        "meta_norad_cat_id": 40799,
        "meta_element_set_no": 999,
        "meta_rev_at_epoch": 50182,
        "meta_bstar": 0.00039326,
        "meta_mean_motion_dot": 5.163e-05,
        "meta_mean_motion_ddot": 0,
        "tle_line1": "1 40799U 93036BWC 25360.45754638  .00005163  00000+0  39326-3 0  9998",
        "tle_line2": "2 40799  73.9261  70.4321 0119466 309.4146  49.6507 14.96790134501821"
      },
      "geometry": {
        "type": "Point",
        "coordinates": [
          -107.5486149490087,
          -12.250254700484087
        ]
      }
    },
    {
      "type": "Feature",
      "properties": {
        "norad_id": 40802,
        "name": "COSMOS 2251 DEB",
        "group": "cosmos-2251-debris",
        "lat": -29.942942130890454,
        "lon": 115.09889078768553,
        "alt_km": 655.7290741100287,
        "timestamp": "2025-12-27T05:29:39.602904+00:00",
        "meta_object_name": "COSMOS 2251 DEB",
        "meta_object_id": "1993-036BWF",
        "meta_epoch": "2025-12-23T15:31:23.351520",
        "meta_mean_motion": 14.77722867,
        "meta_eccentricity": 0.00628376,
        "meta_inclination": 74.0411,
        "meta_ra_of_asc_node": 131.6125,
        "meta_arg_of_pericenter": 228.2814,
        "meta_mean_anomaly": 131.2977,
        "meta_ephemeris_type": 0,
        "meta_classification_type": "U",
        "meta_norad_cat_id": 40802,
        "meta_element_set_no": 999,
        "meta_rev_at_epoch": 64570,
        "meta_bstar": 0.00086100359,
        "meta_mean_motion_dot": 6.349e-05,
        "meta_mean_motion_ddot": 0,
        "tle_line1": "1 40802U 93036BWF 25357.64679805  .00006349  00000+0  86100-3 0  9991",
        "tle_line2": "2 40802  74.0411 131.6125 0062837 228.2814 131.2977 14.77722867645708"
      },
      "geometry": {
        "type": "Point",
        "coordinates": [
          115.09889078768553,
          -29.942942130890454
        ]
      }
    },
    {
      "type": "Feature",
      "properties": {
        "norad_id": 40803,
        "name": "COSMOS 2251 DEB",
        "group": "cosmos-2251-debris",
        "lat": -72.67054545987251,
        "lon": -88.67881413651456,
        "alt_km": 704.4091338191638,
        "timestamp": "2025-12-27T05:29:39.602914+00:00",
        "meta_object_name": "COSMOS 2251 DEB",
        "meta_object_id": "1993-036BWG",
        "meta_epoch": "2025-12-24T20:03:27.634464",
        "meta_mean_motion": 14.51846049,
        "meta_eccentricity": 0.00342953,
        "meta_inclination": 74.0134,
        "meta_ra_of_asc_node": 29.0874,
        "meta_arg_of_pericenter": 243.7253,
        "meta_mean_anomaly": 116.0383,
        "meta_ephemeris_type": 0,
        "meta_classification_type": "U",
        "meta_norad_cat_id": 40803,
        "meta_element_set_no": 999,
        "meta_rev_at_epoch": 58928,
        "meta_bstar": 0.00027268389,
        "meta_mean_motion_dot": 1.077e-05,
        "meta_mean_motion_ddot": 0,
        "tle_line1": "1 40803U 93036BWG 25358.83573651  .00001077  00000+0  27268-3 0  9999",
        "tle_line2": "2 40803  74.0134  29.0874 0034295 243.7253 116.0383 14.51846049589281"
      },
      "geometry": {
        "type": "Point",
        "coordinates": [
          -88.67881413651456,
          -72.67054545987251
        ]
      }
    },
    {
      "type": "Feature",
      "properties": {
        "norad_id": 40808,
        "name": "COSMOS 2251 DEB",
        "group": "cosmos-2251-debris",
        "lat": -71.35353886549112,
        "lon": 59.505936657831846,
        "alt_km": 678.7115406550711,
        "timestamp": "2025-12-27T05:29:39.602924+00:00",
        "meta_object_name": "COSMOS 2251 DEB",
        "meta_object_id": "1993-036BWM",
        "meta_epoch": "2025-12-26T00:57:19.369728",
        "meta_mean_motion": 14.67714276,
        "meta_eccentricity": 0.00079356,
        "meta_inclination": 74.0421,
        "meta_ra_of_asc_node": 119.7933,
        "meta_arg_of_pericenter": 153.9486,
        "meta_mean_anomaly": 325.2565,
        "meta_ephemeris_type": 0,
        "meta_classification_type": "U",
        "meta_norad_cat_id": 40808,
        "meta_element_set_no": 999,
        "meta_rev_at_epoch": 63814,
        "meta_bstar": 0.0017405613,
        "meta_mean_motion_dot": 9.901e-05,
        "meta_mean_motion_ddot": 0,
        "tle_line1": "1 40808U 93036BWM 25360.03980752  .00009901  00000+0  17406-2 0  9999",
        "tle_line2": "2 40808  74.0421 119.7933 0007935 153.9486 325.2565 14.67714276638148"
      },
      "geometry": {
        "type": "Point",
        "coordinates": [
          59.505936657831846,
          -71.35353886549112
        ]
      }
    },
    {
      "type": "Feature",
      "properties": {
        "norad_id": 40810,
        "name": "COSMOS 2251 DEB",
        "group": "cosmos-2251-debris",
        "lat": 72.86731495960824,
        "lon": 158.92917787378846,
        "alt_km": 692.0511295689803,
        "timestamp": "2025-12-27T05:29:39.602935+00:00",
        "meta_object_name": "COSMOS 2251 DEB",
        "meta_object_id": "1993-036BWP",
        "meta_epoch": "2025-12-23T03:56:49.945344",
        "meta_mean_motion": 14.58782513,
        "meta_eccentricity": 0.00180471,
        "meta_inclination": 74.0361,
        "meta_ra_of_asc_node": 54.8832,
        "meta_arg_of_pericenter": 205.863,
        "meta_mean_anomaly": 154.1635,
        "meta_ephemeris_type": 0,
        "meta_classification_type": "U",
        "meta_norad_cat_id": 40810,
        "meta_element_set_no": 999,
        "meta_rev_at_epoch": 61835,
        "meta_bstar": 0.0007215593,
        "meta_mean_motion_dot": 3.351e-05,
        "meta_mean_motion_ddot": 0,
        "tle_line1": "1 40810U 93036BWP 25357.16446696  .00003351  00000+0  72156-3 0  9993",
        "tle_line2": "2 40810  74.0361  54.8832 0018047 205.8630 154.1635 14.58782513618352"
      },
      "geometry": {
        "type": "Point",
        "coordinates": [
          158.92917787378846,
          72.86731495960824
        ]
      }
    }
  ]
}